[{"OBJECT_NAME":"YAOGAN-20 01A","OBJECT_ID":"2014-047A","EPOCH":"2026-03-09T23:42:48.180096","MEAN_MOTION":13.4543306,"ECCENTRICITY":0.03815274,"INCLINATION":63.3786,"RA_OF_ASC_NODE":274.8961,"ARG_OF_PERICENTER":14.1455,"MEAN_ANOMALY":346.9906,"EPHEMERIS_TYPE":0,"CLASSIFICATION_TYPE":"U","NORAD_CAT_ID":40109,"ELEMENT_SET_NO":999,"REV_AT_EPOCH":56909,"BSTAR":0.00011386118,"MEAN_MOTION_DOT":1.4e-7,"MEAN_MOTION_DDOT":0},{"OBJECT_NAME":"DELTA 2 DEB","OBJECT_ID":"1998-002E","EPOCH":"2026-03-09T13:41:13.971840","MEAN_MOTION":13.72339032,"ECCENTRICITY":0.0323846,"INCLINATION":26.8756,"RA_OF_ASC_NODE":104.0416,"ARG_OF_PERICENTER":93.3131,"MEAN_ANOMALY":41.3614,"EPHEMERIS_TYPE":0,"CLASSIFICATION_TYPE":"U","NORAD_CAT_ID":25138,"ELEMENT_SET_NO":999,"REV_AT_EPOCH":40827,"BSTAR":0.00029996,"MEAN_MOTION_DOT":5.17e-6,"MEAN_MOTION_DDOT":0}]
